"spkid","full_name","pdes","name","prefix","neo","pha","sats","H","G","M1","M2","K1","K2","PC","diameter","extent","albedo","rot_per","GM","BV","UB","IR","spec_B","spec_T","H_sigma","diameter_sigma","orbit_id","epoch","epoch_mjd","epoch_cal","equinox","e","a","q","i","om","w","ma","ad","n","tp","tp_cal","per","per_y","moid","moid_ld","moid_jup","t_jup","sigma_e","sigma_a","sigma_q","sigma_i","sigma_om","sigma_w","sigma_ma","sigma_ad","sigma_n","sigma_tp","sigma_per","class","producer","data_arc","first_obs","last_obs","n_obs_used","n_del_obs_used","n_dop_obs_used","condition_code","rms","two_body","A1","A1_sigma","A2","A2_sigma","A3","A3_sigma","DT","DT_sigma"
54125898,"       (2021 DM2)","2021 DM2",,,Y,Y,0,20.85,,,,,,,,,,,,,,,,,,,"JPL 17",2460200.5,60200,2023-09-13.0,J2000,0.2870,1.332,0.950,21.64,149.31,221.52,19.53,1.71,0.6408,2460170.02,2023-08-13.5,562,1.54,0.00467,1.82,3.78,4.81,2.4e-07,1.3e-08,3.1e-07,1.3e-05,2.1e-05,4.0e-05,6.1e-05,1.6e-08,9.1e-09,9.5e-05,8.0e-06,APO,"Otto Matic",5380,2009-06-09,2024-03-02,60,,,0,.56647,,,,,,,,,
54130042,"       (2021 EV)","2021 EV",,,Y,Y,0,20.71,,,,,,,,,,,,,,,,,0.31,,"JPL 20",2460200.5,60200,2023-09-13.0,J2000,0.5117,2.145,1.048,8.83,30.59,188.64,264.58,3.24,0.3136,2460504.74,2024-07-13.2,1.15e+03,3.14,0.043,16.7,1.73,3.52,8.6e-08,1.1e-07,2.4e-07,7.4e-06,6.8e-05,7.2e-05,2.4e-05,1.7e-07,2.5e-08,9.6e-05,9.0e-05,AMO,"Otto Matic",2138,2015-08-21,2021-06-28,117,,,1,.64906,,,,,,,,,
54131484,"       (2021 EJ4)","2021 EJ4",,,Y,Y,0,20.78,,,,,,,,,,,,,,,,,0.28,,"JPL 6",2460200.5,60200,2023-09-13.0,J2000,0.6663,2.7,0.901,28.49,140.83,126.14,186.97,4.50,0.2222,2460979.24,2025-10-30.7,1.62e+03,4.44,0.0497,19.3,1.72,2.87,1.1e-04,9.7e-04,1.4e-05,3.1e-03,3.0e-03,4.4e-03,1.0e-01,1.6e-03,1.2e-04,8.7e-01,8.7e-01,APO,"Otto Matic",57,2021-03-10,2021-05-06,29,,,6,.36747,,,,,,,,,
54131736,"       (2021 ED5)","2021 ED5",,,Y,Y,0,20.16,,,,,,,,,,,,,,,,,0.47,,"JPL 13",2460200.5,60200,2023-09-13.0,J2000,0.7340,2.615,0.695,5.91,182.13,112.68,194.38,4.53,0.2331,2460910.90,2025-08-23.4,1.54e+03,4.23,0.0115,4.47,0.859,2.95,9.0e-05,8.8e-04,3.0e-06,6.1e-04,1.7e-03,3.2e-03,9.7e-02,1.5e-03,1.2e-04,7.7e-01,7.8e-01,APO,"Otto Matic",42,2021-03-15,2021-04-26,63,,,6,.39841,,,,,,,,,
54133135,"       (2021 FG3)","2021 FG3",,,Y,Y,0,20.96,,,,,,,,,,,,,,,,,0.34,,"JPL 7",2460200.5,60200,2023-09-13.0,J2000,0.7070,2.817,0.825,6.85,196.25,68.97,176.96,4.81,0.2085,2459351.83,2021-05-17.3,1.73e+03,4.73,0.0271,10.5,0.588,2.88,3.8e-05,3.6e-04,9.9e-07,2.1e-04,2.5e-04,7.2e-04,3.4e-02,6.2e-04,4.0e-05,9.6e-04,3.3e-01,APO,"Otto Matic",62,2021-02-11,2021-04-14,39,,,5,.46159,,,,,,,,,
54135434,"       (2021 GY3)","2021 GY3",,,Y,Y,0,21.76,,,,,,,,,,,,,,,,,0.35,,"JPL 12",2460200.5,60200,2023-09-13.0,J2000,0.6058,1.686,0.665,17.03,181.61,278.57,71.63,2.71,0.4501,2460041.34,2023-04-06.8,800,2.19,0.00908,3.53,2.72,3.95,4.1e-05,1.4e-04,1.5e-05,1.0e-03,5.2e-04,2.6e-04,5.2e-02,2.2e-04,5.5e-05,9.7e-02,9.7e-02,APO,"Otto Matic",33,2021-04-06,2021-05-09,86,,,6,.40458,,,,,,,,,
54135548,"       (2021 GM4)","2021 GM4",,,Y,Y,0,21.81,,,,,,,,,,,,,,,,,0.31,,"JPL 46",2460200.5,60200,2023-09-13.0,J2000,0.3512,1.524,0.989,5.25,295.12,323.90,70.95,2.06,0.5241,2460065.12,2023-04-30.6,687,1.88,0.0123,4.8,3.01,4.42,1.4e-08,1.2e-08,1.9e-08,2.7e-06,1.4e-05,1.6e-05,5.5e-06,1.6e-08,6.0e-09,9.6e-06,7.8e-06,APO,"Otto Matic",5468,2006-10-15,2021-10-04,253,,,0,.38053,,,,,,,,,
54136195,"       (2021 GB6)","2021 GB6",,,Y,Y,0,20.42,,,,,,,,,,,,,,,,,0.36,,"JPL 12",2460200.5,60200,2023-09-13.0,J2000,0.7441,1.925,0.493,6.21,336.17,103.96,355.92,3.36,0.3692,2460211.54,2023-09-24.0,975,2.67,0.00456,1.77,1.99,3.51,8.0e-08,3.3e-08,1.6e-07,1.6e-05,1.9e-04,1.2e-04,9.3e-05,5.8e-08,9.6e-09,2.5e-04,2.5e-05,APO,"Otto Matic",3678,2013-04-20,2023-05-16,72,,,1,.45518,,,,,,,,,
54136200,"       (2021 GM6)","2021 GM6",,,Y,Y,0,20.19,,,,,,,,,,,,,,,,,0.36,,"JPL 10",2460200.5,60200,2023-09-13.0,J2000,0.6651,2.586,0.866,35.68,182.35,122.40,190.98,4.31,0.237,2460913.81,2025-08-26.3,1.52e+03,4.16,0.0486,18.9,2.3,2.87,1.4e-04,1.2e-03,4.7e-05,5.2e-03,4.0e-03,9.0e-03,1.4e-01,2.1e-03,1.7e-04,1.1e+00,1.1e+00,APO,"Otto Matic",43,2021-04-07,2021-05-20,56,,,6,.28327,,,,,,,,,
54137790,"       (2021 GX12)","2021 GX12",,,Y,Y,0,21.31,,,,,,,,,,,,,,,,,0.42,,"JPL 7",2460200.5,60200,2023-09-13.0,J2000,0.3762,1.506,0.939,20.66,33.77,49.70,197.72,2.07,0.5333,2460504.80,2024-07-13.3,675,1.85,0.039,15.2,3.34,4.39,2.0e-07,1.2e-07,3.3e-07,1.8e-05,1.8e-05,8.8e-05,1.6e-04,1.6e-07,6.3e-08,3.4e-04,7.9e-05,APO,"Otto Matic",1669,2018-10-18,2023-05-14,36,,,1,.48409,,,,,,,,,
54137809,"       (2021 GN16)","2021 GN16",,,Y,Y,0,21.73,,,,,,,,,,,,,,,,,0.29,,"JPL 7",2460200.5,60200,2023-09-13.0,J2000,0.1935,1.189,0.959,42.75,211.79,215.01,86.89,1.42,0.7606,2460086.26,2023-05-21.7,473,1.3,0.00706,2.75,3.96,5.07,1.2e-05,3.7e-05,4.4e-05,2.6e-03,5.6e-04,4.8e-03,3.7e-02,4.5e-05,3.6e-05,4.4e-02,2.2e-02,APO,"Otto Matic",75,2021-04-13,2021-06-27,35,,,5,.50662,,,,,,,,,
54137811,"       (2021 GP16)","2021 GP16",,,Y,Y,0,21.94,,,,,,,,,,,,,,,,,,,"JPL 20",2460200.5,60200,2023-09-13.0,J2000,0.3165,1.057,0.722,15.04,209.53,110.60,3.57,1.39,0.9071,2460196.56,2023-09-09.0,397,1.09,0.0377,14.7,3.95,5.75,2.4e-07,4.8e-08,2.3e-07,8.1e-06,6.2e-06,1.1e-05,3.5e-05,6.4e-08,6.2e-08,3.9e-05,2.7e-05,APO,"Otto Matic",969,2021-04-15,2023-12-10,177,,,1,.3301,,,,,,,,,
54142826,"       (2021 HC3)","2021 HC3",,,Y,Y,0,21.57,,,,,,,,,,0.038472,,,,,,,0.44,,"JPL 12",2460200.5,60200,2023-09-13.0,J2000,0.6756,1.122,0.364,28.40,219.54,132.15,309.82,1.88,0.8297,2460260.98,2023-11-12.4,434,1.19,0.0469,18.3,3.76,5.24,1.5e-07,5.2e-08,1.7e-07,2.1e-05,5.0e-06,1.4e-05,5.0e-05,8.8e-08,5.8e-08,6.4e-05,3.0e-05,APO,"Otto Matic",1556,2018-02-18,2022-05-24,145,,,1,.45185,,,,,,,,,
54150700,"       (2021 HK12)","2021 HK12",,,Y,Y,0,17.66,,,,,,,,,,,,,,,,,0.37,,"JPL 13",2460200.5,60200,2023-09-13.0,J2000,0.6844,3.285,1.037,47.04,187.07,168.82,102.97,5.53,0.1655,2459578.32,2021-12-29.8,2.18e+03,5.96,0.043,16.7,0.188,2.37,9.3e-07,1.0e-07,3.0e-06,4.4e-05,5.8e-05,1.0e-04,4.9e-05,1.7e-07,7.6e-09,2.9e-04,1.0e-04,AMO,"Otto Matic",2452,2015-02-17,2021-11-04,77,,,0,.82806,,,,,,,,,
54143414,"       (2021 JY)","2021 JY",,,Y,Y,0,18.80,,,,,,,,,,,,,,,,,,,"JPL 22",2460200.5,60200,2023-09-13.0,J2000,0.5764,1.595,0.676,36.16,44.51,76.60,103.98,2.51,0.4891,2459987.92,2023-02-12.4,736,2.02,0.0402,15.7,3.37,3.99,1.6e-07,4.0e-08,2.4e-07,3.4e-05,1.4e-05,3.1e-05,1.9e-05,6.2e-08,1.8e-08,3.9e-05,2.7e-05,APO,"Otto Matic",2425,2016-09-27,2023-05-19,121,,,0,.34403,,,,,,,,,
54145212,"       (2021 JF6)","2021 JF6",,,Y,Y,0,19.93,,,,,,,,,,,,,,,,,0.30,,"JPL 4",2460200.5,60200,2023-09-13.0,J2000,0.9358,2.464,0.158,9.23,10.49,42.44,234.04,4.77,0.2548,2460694.86,2025-01-19.3,1.41e+03,3.87,0.000902,0.351,0.897,2.59,5.3e-05,1.9e-03,1.0e-05,1.2e-03,1.6e-03,2.7e-03,2.7e-01,3.7e-03,2.9e-04,1.6e+00,1.6e+00,APO,"Otto Matic",47,2021-04-15,2021-06-01,34,,,7,.51223,,,,,,,,,
54146072,"       (2021 KD)","2021 KD",,,Y,Y,0,21.68,,,,,,,,,,,,,,,,,0.27,,"JPL 19",2460200.5,60200,2023-09-13.0,J2000,0.1035,1.119,1.003,26.02,66.92,235.64,295.12,1.23,0.8325,2460278.43,2023-11-29.9,432,1.18,0.0311,12.1,3.85,5.48,2.9e-08,8.7e-09,3.2e-08,1.4e-05,7.5e-06,2.0e-05,2.0e-05,9.6e-09,9.7e-09,2.5e-05,5.0e-06,APO,"Otto Matic",2425,2015-05-13,2022-01-01,121,,,0,.64027,,,,,,,,,
54147407,"       (2021 KT1)","2021 KT1",,,Y,Y,0,21.40,,,,,,,,,,,,,,,,,0.33,,"JPL 20",2460200.5,60200,2023-09-13.0,J2000,0.5244,2.118,1.007,28.68,69.61,154.30,273.02,3.23,0.3197,2460472.57,2024-06-11.0,1.13e+03,3.08,0.0269,10.5,1.88,3.41,3.1e-05,1.4e-04,2.4e-07,8.1e-04,9.9e-05,4.2e-04,2.7e-02,2.1e-04,3.1e-05,1.1e-01,1.1e-01,APO,"Otto Matic",72,2021-04-23,2021-07-04,209,,,5,.3293,,,,,,,,,
54161704,"       (2021 KG10)","2021 KG10",,,Y,Y,0,19.93,,,,,,,,,,,,,,,,,0.66,,"JPL 15",2460200.5,60200,2023-09-13.0,J2000,0.3547,1.519,0.980,15.79,271.28,20.66,63.47,2.06,0.5263,2460079.90,2023-05-15.4,684,1.87,0.0186,7.23,3.13,4.4,5.3e-08,1.7e-08,7.7e-08,7.6e-06,1.7e-05,2.1e-05,1.3e-05,2.3e-08,8.7e-09,2.4e-05,1.1e-05,APO,"Otto Matic",3241,2015-01-19,2023-12-04,101,,,0,.48639,,,,,,,,,
54297314,"       (2021 KA17)","2021 KA17",,,Y,Y,0,21.95,,,,,,,,,,,,,,,,,0.23,,"JPL 2",2460200.5,60200,2023-09-13.0,J2000,0.3662,0.9609,0.609,6.11,45.25,81.16,236.29,1.31,1.046,2460318.74,2024-01-09.2,344,0.942,0.0364,14.2,3.75,6.21,4.7e-06,6.8e-07,4.9e-06,5.8e-05,5.7e-04,5.4e-04,6.2e-04,9.3e-07,1.1e-06,7.2e-04,3.7e-04,ATE,"Otto Matic",778,2021-05-31,2023-07-18,98,,,3,.51596,,,,,,,,,
54154697,"       (2021 LD1)","2021 LD1",,,Y,Y,0,20.29,,,,,,,,,,,,,,,,,0.61,,"JPL 23",2460200.5,60200,2023-09-13.0,J2000,0.6471,2.802,0.989,39.26,110.84,183.59,166.55,4.62,0.2101,2459407.80,2021-07-12.2,1.71e+03,4.69,0.0271,10.5,0.621,2.72,1.8e-06,1.5e-05,4.5e-08,5.1e-05,5.2e-06,3.5e-05,1.3e-03,2.4e-05,1.6e-06,2.8e-05,1.3e-02,APO,"Otto Matic",130,2021-04-29,2021-09-06,112,2,1,3,.29173,,,,,,,,,
54157345,"       (2021 LL2)","2021 LL2",,,Y,Y,0,21.58,,,,,,,,,,,,,,,,,,,"JPL 11",2460200.5,60200,2023-09-13.0,J2000,0.7143,1.727,0.493,3.11,225.42,159.68,330.70,2.96,0.4343,2460267.95,2023-11-19.4,829,2.27,0.0458,17.8,2.5,3.82,4.9e-08,4.7e-08,7.6e-08,4.8e-06,8.7e-05,8.8e-05,1.4e-05,8.1e-08,1.8e-08,3.5e-05,3.4e-05,APO,"Otto Matic",3311,2015-01-22,2024-02-15,66,,,0,.71316,,,,,,,,,
54161318,"       (2021 MJ)","2021 MJ",,,Y,Y,0,20.45,,,,,,,,,,,,,,,,,0.33,,"JPL 5",2460200.5,60200,2023-09-13.0,J2000,0.1955,0.8922,0.718,40.11,122.84,20.80,355.83,1.07,1.169,2460204.07,2023-09-16.5,308,0.843,0.0338,13.2,4,6.45,4.8e-06,5.1e-06,8.4e-06,8.3e-04,2.4e-04,8.8e-04,8.8e-03,6.1e-06,1.0e-05,7.6e-03,2.6e-03,ATE,"Otto Matic",66,2021-05-24,2021-07-29,37,,,5,.56797,,,,,,,,,
54161734,"       (2021 MX)","2021 MX",,,Y,Y,0,21.93,,,,,,,,,,,,,,,,,0.22,,"JPL 11",2460200.5,60200,2023-09-13.0,J2000,0.8825,2.588,0.304,18.29,267.20,236.69,203.71,4.87,0.2367,2460860.73,2025-07-04.2,1.52e+03,4.16,0.0198,7.71,1.31,2.64,1.3e-04,2.5e-03,5.0e-05,5.1e-03,3.7e-04,1.3e-03,3.0e-01,4.8e-03,3.5e-04,2.2e+00,2.2e+00,APO,"Otto Matic",20,2021-06-18,2021-07-08,70,,,7,.46337,,,,,,,,,
